[{"OBJECT_NAME":"LEMUR-2-TARTIFLETTE","OBJECT_ID":"2025-276DZ","EPOCH":"2026-04-27T02:14:04.370496","MEAN_MOTION":14.98393671,"ECCENTRICITY":0.00117069,"INCLINATION":97.5296,"RA_OF_ASC_NODE":189.4997,"ARG_OF_PERICENTER":316.8156,"MEAN_ANOMALY":43.2148,"EPHEMERIS_TYPE":0,"CLASSIFICATION_TYPE":"U","NORAD_CAT_ID":66784,"ELEMENT_SET_NO":999,"REV_AT_EPOCH":2254,"BSTAR":0.00064639155,"MEAN_MOTION_DOT":7.668e-5,"MEAN_MOTION_DDOT":0},{"OBJECT_NAME":"LEMUR-2-VUKASIN","OBJECT_ID":"2025-276EA","EPOCH":"2026-04-27T04:45:28.291968","MEAN_MOTION":14.99708098,"ECCENTRICITY":0.00060785,"INCLINATION":97.5241,"RA_OF_ASC_NODE":189.7914,"ARG_OF_PERICENTER":301.755,"MEAN_ANOMALY":58.3081,"EPHEMERIS_TYPE":0,"CLASSIFICATION_TYPE":"U","NORAD_CAT_ID":66785,"ELEMENT_SET_NO":999,"REV_AT_EPOCH":2250,"BSTAR":0.00073892188,"MEAN_MOTION_DOT":9.072e-5,"MEAN_MOTION_DDOT":0},{"OBJECT_NAME":"LEMUR-2-HOTSPUR-TOM","OBJECT_ID":"2025-276EB","EPOCH":"2026-04-27T03:35:32.891136","MEAN_MOTION":14.98374686,"ECCENTRICITY":0.00119767,"INCLINATION":97.5267,"RA_OF_ASC_NODE":189.5507,"ARG_OF_PERICENTER":309.4793,"MEAN_ANOMALY":50.537,"EPHEMERIS_TYPE":0,"CLASSIFICATION_TYPE":"U","NORAD_CAT_ID":66786,"ELEMENT_SET_NO":999,"REV_AT_EPOCH":2248,"BSTAR":0.00067771887,"MEAN_MOTION_DOT":8.039e-5,"MEAN_MOTION_DDOT":0},{"OBJECT_NAME":"LEMUR-2-MYRA","OBJECT_ID":"2025-276EC","EPOCH":"2026-04-27T02:13:22.108800","MEAN_MOTION":14.99669939,"ECCENTRICITY":0.00109752,"INCLINATION":97.5312,"RA_OF_ASC_NODE":189.6492,"ARG_OF_PERICENTER":322.5053,"MEAN_ANOMALY":37.5404,"EPHEMERIS_TYPE":0,"CLASSIFICATION_TYPE":"U","NORAD_CAT_ID":66787,"ELEMENT_SET_NO":999,"REV_AT_EPOCH":2255,"BSTAR":0.00049294055,"MEAN_MOTION_DOT":6.029e-5,"MEAN_MOTION_DDOT":0},{"OBJECT_NAME":"LEMUR-2 FIKRETDENGIZ","OBJECT_ID":"2026-004A","EPOCH":"2026-04-27T05:36:35.793504","MEAN_MOTION":14.87931075,"ECCENTRICITY":0.00074405,"INCLINATION":97.802,"RA_OF_ASC_NODE":116.592,"ARG_OF_PERICENTER":317.1744,"MEAN_ANOMALY":42.8892,"EPHEMERIS_TYPE":0,"CLASSIFICATION_TYPE":"U","NORAD_CAT_ID":67363,"ELEMENT_SET_NO":999,"REV_AT_EPOCH":1570,"BSTAR":0.00061552921,"MEAN_MOTION_DOT":5.59e-5,"MEAN_MOTION_DDOT":0},{"OBJECT_NAME":"LEMUR-2-CALLUM-K-J","OBJECT_ID":"2026-004B","EPOCH":"2026-04-27T05:46:15.012192","MEAN_MOTION":14.8752413,"ECCENTRICITY":0.00072301,"INCLINATION":97.8064,"RA_OF_ASC_NODE":116.6275,"ARG_OF_PERICENTER":303.7634,"MEAN_ANOMALY":56.2893,"EPHEMERIS_TYPE":0,"CLASSIFICATION_TYPE":"U","NORAD_CAT_ID":67364,"ELEMENT_SET_NO":999,"REV_AT_EPOCH":1571,"BSTAR":0.0002335578,"MEAN_MOTION_DOT":2.065e-5,"MEAN_MOTION_DDOT":0},{"OBJECT_NAME":"LEMUR-2-MARIO-SOUSA","OBJECT_ID":"2026-004C","EPOCH":"2026-04-26T22:54:03.669696","MEAN_MOTION":14.88086898,"ECCENTRICITY":0.0007054,"INCLINATION":97.7998,"RA_OF_ASC_NODE":116.3153,"ARG_OF_PERICENTER":320.1963,"MEAN_ANOMALY":39.8735,"EPHEMERIS_TYPE":0,"CLASSIFICATION_TYPE":"U","NORAD_CAT_ID":67365,"ELEMENT_SET_NO":999,"REV_AT_EPOCH":1567,"BSTAR":0.00059736,"MEAN_MOTION_DOT":5.444e-5,"MEAN_MOTION_DDOT":0},{"OBJECT_NAME":"LEMUR-2-SONNENBLUME","OBJECT_ID":"2026-004E","EPOCH":"2026-04-27T05:13:09.714720","MEAN_MOTION":14.88049551,"ECCENTRICITY":0.00068256,"INCLINATION":97.7989,"RA_OF_ASC_NODE":116.5731,"ARG_OF_PERICENTER":321.0087,"MEAN_ANOMALY":39.0637,"EPHEMERIS_TYPE":0,"CLASSIFICATION_TYPE":"U","NORAD_CAT_ID":67367,"ELEMENT_SET_NO":999,"REV_AT_EPOCH":1571,"BSTAR":0.00043428872,"MEAN_MOTION_DOT":3.938e-5,"MEAN_MOTION_DDOT":0},{"OBJECT_NAME":"LEMUR-2-WOBLER","OBJECT_ID":"2026-004F","EPOCH":"2026-04-27T06:47:45.603744","MEAN_MOTION":14.88133387,"ECCENTRICITY":0.00065198,"INCLINATION":97.8046,"RA_OF_ASC_NODE":116.7125,"ARG_OF_PERICENTER":308.8341,"MEAN_ANOMALY":51.2293,"EPHEMERIS_TYPE":0,"CLASSIFICATION_TYPE":"U","NORAD_CAT_ID":67368,"ELEMENT_SET_NO":999,"REV_AT_EPOCH":1572,"BSTAR":0.00062312886,"MEAN_MOTION_DOT":5.687e-5,"MEAN_MOTION_DDOT":0},{"OBJECT_NAME":"LEMUR-2-GRAM-E-SUE","OBJECT_ID":"2026-004H","EPOCH":"2026-04-27T06:35:37.688064","MEAN_MOTION":14.88225259,"ECCENTRICITY":0.00059151,"INCLINATION":97.7978,"RA_OF_ASC_NODE":116.6394,"ARG_OF_PERICENTER":325.7293,"MEAN_ANOMALY":34.3541,"EPHEMERIS_TYPE":0,"CLASSIFICATION_TYPE":"U","NORAD_CAT_ID":67370,"ELEMENT_SET_NO":999,"REV_AT_EPOCH":1572,"BSTAR":0.00066392037,"MEAN_MOTION_DOT":6.077e-5,"MEAN_MOTION_DDOT":0},{"OBJECT_NAME":"LEMUR-2-KATIE","OBJECT_ID":"2026-004AA","EPOCH":"2026-04-27T05:55:15.625632","MEAN_MOTION":14.89706054,"ECCENTRICITY":0.00013108,"INCLINATION":97.8039,"RA_OF_ASC_NODE":116.9101,"ARG_OF_PERICENTER":248.6937,"MEAN_ANOMALY":111.4141,"EPHEMERIS_TYPE":0,"CLASSIFICATION_TYPE":"U","NORAD_CAT_ID":67387,"ELEMENT_SET_NO":999,"REV_AT_EPOCH":1572,"BSTAR":0.00055015087,"MEAN_MOTION_DOT":5.213e-5,"MEAN_MOTION_DDOT":0},{"OBJECT_NAME":"LEMUR-2-HCS-BAZUS","OBJECT_ID":"2026-004AB","EPOCH":"2026-04-27T07:28:32.135520","MEAN_MOTION":14.89603318,"ECCENTRICITY":9.707e-5,"INCLINATION":97.8031,"RA_OF_ASC_NODE":116.9657,"ARG_OF_PERICENTER":223.7483,"MEAN_ANOMALY":136.3657,"EPHEMERIS_TYPE":0,"CLASSIFICATION_TYPE":"U","NORAD_CAT_ID":67388,"ELEMENT_SET_NO":999,"REV_AT_EPOCH":1573,"BSTAR":0.00060101435,"MEAN_MOTION_DOT":5.686e-5,"MEAN_MOTION_DDOT":0}]
